{
    "links": {
        "self": "http://www.neowsapp.com/rest/v1/neo/3752570?api_key=iIulBulltgU6a56xZRHN4H3l9WmuAYTsLGpBGhQ2"
    },
    "id": "3752570",
    "neo_reference_id": "3752570",
    "name": "(2016 HH19)",
    "designation": "2016 HH19",
    "nasa_jpl_url": "http://ssd.jpl.nasa.gov/sbdb.cgi?sstr=3752570",
    "absolute_magnitude_h": 26.6,
    "estimated_diameter": {
        "kilometers": {
            "estimated_diameter_min": 0.0127219879,
            "estimated_diameter_max": 0.0284472297
        },
        "meters": {
            "estimated_diameter_min": 12.7219878539,
            "estimated_diameter_max": 28.4472296503
        },
        "miles": {
            "estimated_diameter_min": 0.0079050743,
            "estimated_diameter_max": 0.0176762835
        },
        "feet": {
            "estimated_diameter_min": 41.7388066307,
            "estimated_diameter_max": 93.330808926
        }
    },
    "is_potentially_hazardous_asteroid": false,
    "close_approach_data": [
        {
            "close_approach_date": "2016-05-08",
            "close_approach_date_full": "2016-May-08 09:01",
            "epoch_date_close_approach": 1462698060000,
            "relative_velocity": {
                "kilometers_per_second": "9.0457339058",
                "kilometers_per_hour": "32564.6420607024",
                "miles_per_hour": "20234.4021737737"
            },
            "miss_distance": {
                "astronomical": "0.0412223303",
                "lunar": "16.0354864867",
                "kilometers": "6166772.809316461",
                "miles": "3831854.9382347218"
            },
            "orbiting_body": "Earth"
        }
    ],
    "orbital_data": {
        "orbit_id": "8",
        "orbit_determination_date": "2018-02-10 07:07:51",
        "first_observation_date": "2016-04-28",
        "last_observation_date": "2016-05-07",
        "data_arc_in_days": 9,
        "observations_used": 26,
        "orbit_uncertainty": "8",
        "minimum_orbit_intersection": ".0402312",
        "jupiter_tisserand_invariant": "3.591",
        "epoch_osculation": "2457509.5",
        "eccentricity": ".5052443006439328",
        "semi_major_axis": "2.068387922874557",
        "inclination": "8.943112611968571",
        "ascending_node_longitude": "40.47465107821616",
        "orbital_period": "1086.541745564595",
        "perihelion_distance": "1.023346713321445",
        "perihelion_argument": "207.4762011478174",
        "aphelion_distance": "3.113429132427669",
        "perihelion_time": "2457533.760277694560",
        "mean_anomaly": "351.9619287471524",
        "mean_motion": ".3313264322052667",
        "equinox": "J2000",
        "orbit_class": {
            "orbit_class_type": "AMO",
            "orbit_class_description": "Near-Earth asteroid orbits similar to that of 1221 Amor",
            "orbit_class_range": "1.017 AU < q (perihelion) < 1.3 AU"
        }
    },
    "is_sentry_object": false
}